#dP2022  4 30  0  0  0.00000000      96 __u+U ITR00 FIT  IAC
## 2207 518400.00000000   900.00000000 59699 0.0000000000000
+  117   C06C07C08C09C10C11C12C13C14C16C19C20C21C22C23C24C25
+        C26C27C28C29C30C32C33C34C35C36C37C38C39C40C41C42C43
+        C44C45C46E01E02E03E04E05E07E08E09E10E11E12E13E14E15
+        E18E19E21E24E25E26E27E30E31E33E34E36G01G02G03G04G05
+        G06G07G08G09G10G11G12G13G14G15G16G17G18G19G20G21G22
+        G23G24G25G26G27G28G29G30G31G32J02J03R01R02R03R04R05
+        R07R08R09R11R12R13R14R15R17R18R19R20R21R22R24  0  0
++         9  9  7  7  9  6  7  8  8  8  6  7  7  8  6  6  5
++         5  6  7  8  8  8  6  7  8  7  8  8  8  9  7  6  7
++         8  7  6  6  6  7  7  6  6  7  6  9  8  7  4  7  7
++         6  6  6  6  7  6  5  5  6  6  6  7  5  7  9  7  6
++         6  7  5  6  5  9  6  7  5  5  6  7  7  5  6  7  5
++         6  7  7  6  6  6  5  6  8  5  8  9  0  6  6  7  7
++         8  5  7  7  8  7  5  7  7  9  8  8  7  7  7  0  0
%c M  cc GPS ccc cccc cccc cccc cccc ccccc ccccc ccccc ccccc
%c cc cc ccc ccc cccc cccc cccc cccc ccccc ccccc ccccc ccccc
%f  0.0000000  0.000000000  0.00000000000  0.000000000000000
%f  0.0000000  0.000000000  0.00000000000  0.000000000000000
%i    0    0    0    0      0      0      0      0         0
%i    0    0    0    0      0      0      0      0         0
/* INFORMATION & ANALYSIS CENTER (IAC)      ULTRA-RAPID DATA
/* S/V CLOCKS ARE ALIGNED TO GNSS TIME                      
/* G:C1WC2W R:C1PC2P E:C1XC5X C:C2IC6I J:C1CC2S             
/* PCV:IGS14_2196 OL/AL:FES2004  NONE     YN ORB:CoN CLK:CoN
*  2022 04 30 13 30  0.00000000
PC06 -14989.062488  39224.746102  -4942.294097   -107.146993
PC07  -3407.435898  31462.198103 -27803.636311   -106.114273
PC08 -15316.847116  20796.045376  33297.721331    287.866734
PC09  -9638.844057  38781.615589 -13840.385883   -744.076753
PC10   4501.632820  34480.289624 -23275.936246    134.346422
PC11   -271.460556  23841.087550  14538.665690    323.533298
PC12 -12529.760433  24815.244255  -2357.705874   -622.572595
PC13  -5102.386780  22803.654682  35188.012340    -46.094957
PC14  10901.866721  24108.711086   8798.954169    465.546794
PC16 -16749.997470  38787.303991  -1992.105223    126.007704
PC19 -17361.194604 -21858.059685    587.817375    873.956041
PC20  -4402.361942 -22935.305071 -15280.386599   -896.636547
PC21 -12131.045454  10193.937754  22993.492359   -205.649618
PC22 -20798.775001  -8154.700292  16750.699558   -972.945760
PC23  27217.442441    967.536848  -6083.609048   -930.637626
PC24  -6263.964342  16461.896439 -21650.754105   -958.674865
PC25  16239.055116  11651.043905 -19490.921951   -743.476123
PC26 -22317.705750  11895.291243 -11771.514105    744.479967
PC27  16583.121086 -19724.272933  10663.896721    715.911431
PC28  17292.881766  -1952.190763  21813.874664     61.316894
PC29  -8331.152218 -17338.242757 -20225.250012    548.341878
PC30   5794.801654 -26598.324109  -6089.903041    497.778212
PC32  12046.820536 -10281.410210 -22954.465218   -962.629661
PC33  17401.171190  21796.502614   -449.503339   -966.083124
PC34  -5148.233687  26532.525900   6989.456889   -414.018776
PC35 -17069.900372   1480.541661 -22045.180476    252.542559
PC36 -15437.812203 -12280.992345  19760.067132   -963.801659
PC37  23377.647988 -10794.582566  10794.512703   -917.027866
PC38 -22481.307929  21761.001082  28227.284081    228.825598
PC39 -18186.451602  37869.349412   4609.689111     34.970488
PC40  -6507.750007  26852.942532 -31818.644284    265.168516
PC41  20893.506222   8527.971628 -16355.718665   -965.967060
PC42   3417.261857  22577.086648  16075.419991   -959.899533
PC43   7863.879854  18015.830607  19805.510293   -926.878209
PC44 -16034.229540  20141.394593 -10828.913390    644.506034
PC45 -27265.324030   -739.656810   5853.386738    744.829311
PC46   4612.312783 -16400.804740  22108.628626   -299.534015
PE01  12803.473375 -12185.505308  23741.557999   -625.118942
PE02 -12616.731422  12296.455587 -23788.640405    296.157849
PE03  -8264.305796  23360.377136  16186.886306   -553.404249
PE04  -4803.748469 -29192.470068    991.256072  -1017.767332
PE05 -16714.301275   3678.173217  24159.941558   -186.008085
PE07  15311.198023  17851.436305 -17955.689279   -663.804917
PE08   5076.233123  29127.448924  -1257.653989   -521.113845
PE09 -15324.620144 -17690.416044  18139.461171   -502.101379
PE10  -7433.448765 -14477.110735 -24734.724613   -509.990543
PE11 -16642.909903  -6425.219263 -23636.303804   3809.363923
PE12   2407.036272 -19903.175706 -21773.037969   4637.118380
PE13  16047.880635   6935.086413  23883.960413    428.372269
PE14  11877.628132 -19817.368680  13319.508188  -1832.352822
PE15  -2582.300801  19936.966431  21733.014919    748.529383
PE18 -18620.325248   9679.499004 -21716.262625  -1503.941969
PE19   9633.832208 -21501.411678 -17904.154704  -3880.410412
PE21  26303.748927    740.269086  13553.525326   -731.463967
PE24 -24894.708051 -14765.461566   6127.500763   -589.279526
PE25 -26404.756782   -939.397858 -13338.174524   -572.255573
PE26  25283.447372 -10667.054857  11090.299379  -1090.248201
PE27  25560.994349  14069.522414  -5016.814734   -288.038862
PE30   8637.015994  19041.102781 -20970.373688   -472.542858
PE31  -9774.836935 -19006.087532  20481.637976   -495.883835
PE33  19592.657027 -21115.455163  -6781.161537   -457.107053
PE34 -19440.465353  21206.095072   6959.854549   -514.689996
PE36 -25133.335334  10056.645689 -11990.770200   -367.000949
PG01   6582.151520 -17998.709654 -18522.922129    373.349911
PG02 -21408.401576  15851.467060    665.168455   -653.266669
PG03  -3815.360568 -17477.291600 -19776.658167   -226.864549
PG04   1014.466007 -26479.048306   -865.505880   -171.509526
PG05 -12498.044022  10164.404374  20979.810622    -80.159778
PG06 -22694.395130   3208.174464 -13428.774472    285.690077
PG07 -10473.267119 -11838.530395  21778.580370    321.425325
PG08   6239.339045 -23456.703046  10318.471024    -66.070240
PG09  -7427.113550 -23744.071402   9190.269978   -340.187027
PG10  24006.019920  11508.826544  -2134.991755   -397.255463
PG11 -23241.493494  12821.376094    640.270918    -31.494908
PG12  -1413.260642  16380.919833 -21151.019499   -208.267972
PG13 -12865.105110  16843.061409  15749.429852    303.258952
PG14 -23245.796112 -12871.367440  -1397.283458   -105.839844
PG15  -3245.338939  24430.603832   9072.373500    -64.916790
PG16  17196.720596  -4600.578184  19583.278137   -496.643589
PG17 -13227.847582 -10012.098301 -20297.439412    606.831463
PG18   9251.792533  11899.987942  21866.350184    182.400542
PG19 -14821.448221  -2229.863846 -22193.010582    151.170717
PG20 -20759.566119   4647.324187  15757.376839    515.586222
PG21  15412.377523 -18866.050167  -9073.722919    160.825130
PG22  15067.714785  -1293.427860 -21411.005870    251.587333
PG23  19243.111300  16380.355731   8331.402351    -18.691756
PG24  -9147.788143  20030.738252 -14850.718129    248.950410
PG25  13209.143881  18551.558183 -14180.267607    318.700543
PG26  23939.529650   2143.169806  11548.853804    202.354784
PG27  12471.719112 -13673.318184  18683.435698    194.359088
PG28 -23185.923456  -7937.759019  -9430.401981    365.286755
PG29   4561.549350  24563.325891   8871.634744   -508.686958
PG30 -18393.091454  -5181.935296  18627.936786   -526.011828
PG31  23970.173759  -4615.198038 -11146.834050   -175.645336
PG32  14790.928272   7185.870810 -20748.864781   -116.607680
PJ02 -27134.332027  16395.381758 -23280.971094     -3.127572
PJ03 -25563.457154  32448.953212  -3959.016095     -1.847402
PR01  14023.520171   5102.102067 -20675.043101 999999.999999
PR02   4121.537361 -13871.058040 -20941.286168    517.006687
PR03  -7290.721720 -22985.446552  -8187.505450     55.832355
PR04 -14278.745517 -19174.994112   8919.153123    139.240090
PR05 -13452.219455  -4828.865549  21139.576184     92.058081
PR07   7650.644822  23151.281624   7614.898356     34.496585
PR08  14368.571547  19103.783142  -8872.651748    -64.875608
PR09 -15541.308039   8542.836580 -18352.112028     52.544085
PR11  19401.241163   7671.252345 -14657.996540     40.047363
PR12  25310.565899   -334.655847   3249.651108     18.195025
PR13  16604.640663  -7851.206620  17683.303199    -21.634878
PR14  -3133.168486 -11152.734128  22736.467193     77.088011
PR15 -19903.838718  -7711.120051  13985.307765     96.461964
PR17   5788.843024 -20431.137631 -14153.708185    521.992856
PR18  -6129.812232  -9313.797460 -22926.257741    115.276883
PR19 -14650.750765   5132.018414 -20245.748236   -187.298527
PR20 -15916.340375  19653.773423  -3513.208595    -69.662721
PR21  -4884.002174  19757.196279  15360.086592   -297.474518
PR22   6514.439021   8702.557301  23065.712436   -180.187884
PR24  15277.007114 -20240.364430   2809.569408     91.513527
EOF
